[{"OBJECT_NAME":"COSMOS 2503","OBJECT_ID":"2015-009A","EPOCH":"2026-03-09T16:42:37.703808","MEAN_MOTION":15.06275973,"ECCENTRICITY":0.00153206,"INCLINATION":97.8437,"RA_OF_ASC_NODE":123.7175,"ARG_OF_PERICENTER":225.745,"MEAN_ANOMALY":134.252,"EPHEMERIS_TYPE":0,"CLASSIFICATION_TYPE":"U","NORAD_CAT_ID":40420,"ELEMENT_SET_NO":999,"REV_AT_EPOCH":60395,"BSTAR":0.00019589832,"MEAN_MOTION_DOT":2.817e-5,"MEAN_MOTION_DDOT":0},{"OBJECT_NAME":"STARLINK-5239","OBJECT_ID":"2022-141AC","EPOCH":"2026-03-09T23:00:49.271904","MEAN_MOTION":15.08829773,"ECCENTRICITY":0.00012816,"INCLINATION":53.2192,"RA_OF_ASC_NODE":2.5328,"ARG_OF_PERICENTER":92.887,"MEAN_ANOMALY":267.2269,"EPHEMERIS_TYPE":0,"CLASSIFICATION_TYPE":"U","NORAD_CAT_ID":54183,"ELEMENT_SET_NO":999,"REV_AT_EPOCH":18590,"BSTAR":-0.0001368178,"MEAN_MOTION_DOT":-2.464e-5,"MEAN_MOTION_DDOT":0}]
